RADCUBE                 
1 49067U 21073B   24229.83816204  .01998975  30093-2  31821-2 0  9992
2 49067  97.4189 314.9803 0011706 280.1575  79.8385 16.04360880166635
SUNSTORM                
1 49068U 21073C   24229.80294421  .00558220  00000+0  30493-2 0  9991
2 49068  97.4319 313.1703 0003959 310.8793  49.2130 15.78372310166499
LEDSAT                  
1 49069U 21073D   24229.77477321  .00036493  00000+0  13398-2 0  9998
2 49069  97.4340 300.5914 0018766  72.6510 287.6780 15.27680763165698
PLEIADES NEO 4          
1 49070U 21073E   24229.77001618  .00005996  00000+0  76764-3 0  9993
2 49070  97.8947 303.1376 0001005  99.8406 260.2920 14.81685905162244
TIANHUI 2-02A           
1 49071U 21074A   24229.64267331  .00007412  00000+0  38074-3 0  9994
2 49071  97.4692 231.2047 0001685 117.1860 242.9545 15.16777617165790
TIANHUI 2-02B           
1 49072U 21074B   24229.57670260  .00006407  00000+0  32964-3 0  9991
2 49072  97.4690 231.1359 0001824 102.2053 257.9384 15.16776165165770
ONEWEB-0285             
1 49075U 21075A   24229.24055921  .00000535  00000+0  14516-2 0  9998
2 49075  87.8932 124.0945 0001832  78.0923 282.0411 13.12442232147332
ONEWEB-0286             
1 49076U 21075B   24229.21200498 -.00000216  00000+0 -63551-3 0  9999
2 49076  87.8929 124.1010 0002150  77.0853 283.0516 13.12441224146682
ONEWEB-0287             
1 49077U 21075C   24229.25819704  .00002290  00000+0  58632-2 0  9995
2 49077  87.9186 139.2833 0002219  82.0856 278.0527 13.17638509146375
ONEWEB-0288             
1 49078U 21075D   24229.19824066 -.00000324  00000+0 -93712-3 0  9993
2 49078  87.8928 124.1073 0001928  80.9619 279.1728 13.12443526147305
ONEWEB-0289             
1 49079U 21075E   24229.28727534  .00000137  00000+0  31899-3 0  9994
2 49079  87.9186 139.3059 0001824  76.0118 284.1217 13.17651002145986
ONEWEB-0290             
1 49080U 21075F   24229.26949033 -.00000118  00000+0 -33780-3 0  9996
2 49080  87.9183 139.2695 0001977  90.6494 269.4864 13.17650784145393
ONEWEB-0291             
1 49081U 21075G   24229.25336254  .00000074  00000+0  15653-3 0  9999
2 49081  87.9178 139.2904 0002029  84.1130 276.0232 13.17652270145389
ONEWEB-0293             
1 49082U 21075H   24229.27919005  .00000083  00000+0  18087-3 0  9997
2 49082  87.9185 139.3024 0001932  85.3096 274.8256 13.17651702145413
ONEWEB-0294             
1 49083U 21075J   24229.20472823 -.00000344  00000+0 -99100-3 0  9990
2 49083  87.8929 124.1054 0002009  96.7211 263.4146 13.12443987146697
ONEWEB-0295             
1 49084U 21075K   24229.28081314  .00000142  00000+0  33244-3 0  9991
2 49084  87.9186 139.2804 0002302  84.1100 276.0293 13.17649970145370
ONEWEB-0296             
1 49085U 21075L   24229.26149919 -.00000044  00000+0 -15718-3 0  9995
2 49085  87.8931 124.0961 0002404  91.6548 268.4856 13.12442788146707
ONEWEB-0297             
1 49086U 21075M   24229.21607403 -.00000375  00000+0 -10773-2 0  9990
2 49086  87.8938 124.1161 0001940  75.4875 284.6469 13.12443645147305
ONEWEB-0298             
1 49087U 21075N   24229.28404449  .00000086  00000+0  18831-3 0  9994
2 49087  87.9186 139.2980 0002121  74.9272 285.2094 13.17648039145404
ONEWEB-0299             
1 49088U 21075P   24229.28565203  .00000116  00000+0  26681-3 0  9997
2 49088  87.9180 139.2646 0002256  77.1139 283.0244 13.17652084145389
ONEWEB-0300             
1 49089U 21075Q   24229.20797220 -.00000264  00000+0 -77050-3 0  9998
2 49089  87.8930 124.1024 0001826  64.9860 295.1458 13.12443776147320
ONEWEB-0301             
1 49090U 21075R   24229.26798502 -.00000232  00000+0 -67976-3 0  9991
2 49090  87.8932 124.0941 0001807  67.4240 292.7080 13.12443230146698
ONEWEB-0302             
1 49091U 21075S   24229.25502475  .00000182  00000+0  47067-3 0  9994
2 49091  87.8929 124.0953 0001947  83.6312 276.5038 13.12444181146670
ONEWEB-0304             
1 49092U 21075T   24229.25981623  .00000070  00000+0  14721-3 0  9998
2 49092  87.9185 139.2875 0002135  82.6079 277.5295 13.17650575145357
ONEWEB-0305             
1 49093U 21075U   24229.25172298 -.00000439  00000+0 -11626-2 0  9990
2 49093  87.9180 139.2742 0002435  78.9937 281.1468 13.17648901145386
ONEWEB-0308             
1 49094U 21075V   24229.24852530  .00000405  00000+0  10909-2 0  9998
2 49094  87.8929 124.0954 0001822  74.6284 285.5046 13.12443657146681
ONEWEB-0309             
1 49095U 21075W   24229.71219013 -.00000083  00000+0 -24577-3 0  9995
2 49095  87.9185 139.1897 0001922  93.9377 266.1974 13.17648729146405
ONEWEB-0310             
1 49096U 21075X   24229.26312136 -.00000084  00000+0 -26892-3 0  9999
2 49096  87.8939 124.1056 0001810  80.9450 279.1883 13.12440739147317
ONEWEB-0311             
1 49097U 21075Y   24229.26302987  .00000057  00000+0  11369-3 0  9994
2 49097  87.9186 139.2797 0002433  76.7916 283.3487 13.17651757145408
ONEWEB-0312             
1 49098U 21075Z   24229.27756981  .00000118  00000+0  27159-3 0  9995
2 49098  87.9184 139.3086 0002321  86.5759 273.5638 13.17652543145389
