OBJECT_NAME,OBJECT_ID,EPOCH,MEAN_MOTION,ECCENTRICITY,INCLINATION,RA_OF_ASC_NODE,ARG_OF_PERICENTER,MEAN_ANOMALY,EPHEMERIS_TYPE,CLASSIFICATION_TYPE,NORAD_CAT_ID,ELEMENT_SET_NO,REV_AT_EPOCH,BSTAR,MEAN_MOTION_DOT,MEAN_MOTION_DDOT
RADCUBE,2021-073B,2024-08-16T20:06:57.200256,16.0436088,0.0011706,97.4189,314.9803,280.1575,79.8385,0,U,49067,999,16663,0.0031821,0.01998975,0.0030093
SUNSTORM,2021-073C,2024-08-16T19:16:14.379744,15.7837231,0.0003959,97.4319,313.1703,310.8793,49.213,0,U,49068,999,16649,0.0030493,0.0055822,0
LEDSAT,2021-073D,2024-08-16T18:35:40.405344,15.27680763,0.0018766,97.434,300.5914,72.651,287.678,0,U,49069,999,16569,0.0013398,0.00036493,0
PLEIADES NEO 4,2021-073E,2024-08-16T18:28:49.397952,14.81685905,0.0001005,97.8947,303.1376,99.8406,260.292,0,U,49070,999,16224,0.00076764,5.996e-05,0
TIANHUI 2-02A,2021-074A,2024-08-16T15:25:26.973984,15.16777617,0.0001685,97.4692,231.2047,117.186,242.9545,0,U,49071,999,16579,0.00038074,7.412e-05,0
TIANHUI 2-02B,2021-074B,2024-08-16T13:50:27.104640,15.16776165,0.0001824,97.469,231.1359,102.2053,257.9384,0,U,49072,999,16577,0.00032964,6.407e-05,0
ONEWEB-0285,2021-075A,2024-08-16T05:46:24.315744,13.12442232,0.0001832,87.8932,124.0945,78.0923,282.0411,0,U,49075,999,14733,0.0014516,5.35e-06,0
ONEWEB-0286,2021-075B,2024-08-16T05:05:17.230272,13.12441224,0.000215,87.8929,124.101,77.0853,283.0516,0,U,49076,999,14668,-0.00063551,-2.16e-06,0
ONEWEB-0287,2021-075C,2024-08-16T06:11:48.224256,13.17638509,0.0002219,87.9186,139.2833,82.0856,278.0527,0,U,49077,999,14637,0.0058632,2.29e-05,0
ONEWEB-0288,2021-075D,2024-08-16T04:45:27.993024,13.12443526,0.0001928,87.8928,124.1073,80.9619,279.1728,0,U,49078,999,14730,-0.00093712,-3.24e-06,0
ONEWEB-0289,2021-075E,2024-08-16T06:53:40.589376,13.17651002,0.0001824,87.9186,139.3059,76.0118,284.1217,0,U,49079,999,14598,0.00031899,1.37e-06,0
ONEWEB-0290,2021-075F,2024-08-16T06:28:03.964512,13.17650784,0.0001977,87.9183,139.2695,90.6494,269.4864,0,U,49080,999,14539,-0.0003378,-1.18e-06,0
ONEWEB-0291,2021-075G,2024-08-16T06:04:50.523456,13.1765227,0.0002029,87.9178,139.2904,84.113,276.0232,0,U,49081,999,14538,0.00015653,7.4e-07,0
ONEWEB-0293,2021-075H,2024-08-16T06:42:02.020320,13.17651702,0.0001932,87.9185,139.3024,85.3096,274.8256,0,U,49082,999,14541,0.00018087,8.3e-07,0
ONEWEB-0294,2021-075J,2024-08-16T04:54:48.519072,13.12443987,0.0002009,87.8929,124.1054,96.7211,263.4146,0,U,49083,999,14669,-0.000991,-3.44e-06,0
ONEWEB-0295,2021-075K,2024-08-16T06:44:22.255296,13.1764997,0.0002302,87.9186,139.2804,84.11,276.0293,0,U,49084,999,14537,0.00033244,1.42e-06,0
ONEWEB-0296,2021-075L,2024-08-16T06:16:33.530016,13.12442788,0.0002404,87.8931,124.0961,91.6548,268.4856,0,U,49085,999,14670,-0.00015718,-4.4e-07,0
ONEWEB-0297,2021-075M,2024-08-16T05:11:08.796192,13.12443645,0.000194,87.8938,124.1161,75.4875,284.6469,0,U,49086,999,14730,-0.0010773,-3.75e-06,0
ONEWEB-0298,2021-075N,2024-08-16T06:49:01.443936,13.17648039,0.0002121,87.9186,139.298,74.9272,285.2094,0,U,49087,999,14540,0.00018831,8.6e-07,0
ONEWEB-0299,2021-075P,2024-08-16T06:51:20.335392,13.17652084,0.0002256,87.918,139.2646,77.1139,283.0244,0,U,49088,999,14538,0.00026681,1.16e-06,0
ONEWEB-0300,2021-075Q,2024-08-16T04:59:28.798080,13.12443776,0.0001826,87.893,124.1024,64.986,295.1458,0,U,49089,999,14732,-0.0007705,-2.64e-06,0
ONEWEB-0301,2021-075R,2024-08-16T06:25:53.905728,13.1244323,0.0001807,87.8932,124.0941,67.424,292.708,0,U,49090,999,14669,-0.00067976,-2.32e-06,0
ONEWEB-0302,2021-075S,2024-08-16T06:07:14.138400,13.12444181,0.0001947,87.8929,124.0953,83.6312,276.5038,0,U,49091,999,14667,0.00047067,1.82e-06,0
ONEWEB-0304,2021-075T,2024-08-16T06:14:08.122272,13.17650575,0.0002135,87.9185,139.2875,82.6079,277.5295,0,U,49092,999,14535,0.00014721,7e-07,0
ONEWEB-0305,2021-075U,2024-08-16T06:02:28.865472,13.17648901,0.0002435,87.918,139.2742,78.9937,281.1468,0,U,49093,999,14538,-0.0011626,-4.39e-06,0
ONEWEB-0308,2021-075V,2024-08-16T05:57:52.585920,13.12443657,0.0001822,87.8929,124.0954,74.6284,285.5046,0,U,49094,999,14668,0.0010909,4.05e-06,0
ONEWEB-0309,2021-075W,2024-08-16T17:05:33.227232,13.17648729,0.0001922,87.9185,139.1897,93.9377,266.1974,0,U,49095,999,14640,-0.00024577,-8.3e-07,0
ONEWEB-0310,2021-075X,2024-08-16T06:18:53.685504,13.12440739,0.000181,87.8939,124.1056,80.945,279.1883,0,U,49096,999,14731,-0.00026892,-8.4e-07,0
ONEWEB-0311,2021-075Y,2024-08-16T06:18:45.780768,13.17651757,0.0002433,87.9186,139.2797,76.7916,283.3487,0,U,49097,999,14540,0.00011369,5.7e-07,0
ONEWEB-0312,2021-075Z,2024-08-16T06:39:42.031584,13.17652543,0.0002321,87.9184,139.3086,86.5759,273.5638,0,U,49098,999,14538,0.00027159,1.18e-06,0
